ORBCOMM FM103           
1 40091U 14040F   24217.57514555  .00001466  00000+0  36137-3 0  9995
2 40091  47.0064  71.7121 0002330 263.0823  96.9797 14.56825910517919
ORBCOMM FM114           
1 41179U 15081A   24217.53650400  .00002444  00000+0  57720-3 0  9993
2 41179  47.0037 341.1143 0002314 302.8882  57.1781 14.56843278458276
ORBCOMM FM119           
1 41180U 15081B   24217.51121311  .00001257  00000+0  31524-3 0  9992
2 41180  46.9997 250.4584 0001308 349.1977  10.8879 14.56806212459523
ORBCOMM FM105           
1 41181U 15081C   24217.31715337  .00000560  00000+0  20588-3 0  9992
2 41181  47.0000 226.1745 0002431 320.4210  39.6492 14.44508248454924
ORBCOMM FM110           
1 41182U 15081D   24217.65127651  .00002621  00000+0  61557-3 0  9997
2 41182  47.0026 339.9781 0001937 185.9285 174.1578 14.56903722458161
ORBCOMM FM118           
1 41183U 15081E   24217.62897771  .00002147  00000+0  51109-3 0  9997
2 41183  47.0049 340.4108 0002047 179.0822 181.0067 14.56900728458265
ORBCOMM FM112           
1 41184U 15081F   24217.55663152  .00001151  00000+0  29202-3 0  9997
2 41184  46.9980 249.4439 0002038 337.0787  23.0007 14.56781892459471
ORBCOMM FM113           
1 41185U 15081G   24217.46530169  .00001380  00000+0  34235-3 0  9995
2 41185  46.9998 250.1554 0001467 336.6811  23.4007 14.56812035459441
